NORAD_CAT_ID,OBJECT_NAME,OBJECT_TYPE,EPOCH,MEAN_MOTION,ECCENTRICITY,INCLINATION,RA_OF_ASC_NODE,ARG_OF_PERICENTER,MEAN_ANOMALY,BSTAR,MEAN_MOTION_DOT,MEAN_MOTION_DDOT,TLE_LINE0,TLE_LINE1,TLE_LINE2,SEMIMAJOR_AXIS,PERIOD,APOGEE,PERIGEE,DECAYED
52579.0,STARLINK-3893,PAYLOAD,2023-11-01 12:32:27,15.08847725,0.0001541,53.2178,31.0732,98.1031,262.0136,0.0003761,5.704e-05,0.0,0 STARLINK-3893,1 52579U 22051AV  23305.52253745  .00005704  00000-0  37610-3 0  9990,2 52579  53.2178  31.0732 0001541  98.1031 262.0136 15.08847725 81674,6917.857,95.437,540.788,538.656,0.0
52579.0,STARLINK-3893,PAYLOAD,2023-11-02 12:23:14,15.08841858,0.0001561,53.2186,26.6132,86.3391,273.7779,0.00013831,1.914e-05,0.0,0 STARLINK-3893,1 52579U 22051AV  23306.51613822  .00001914  00000-0  13831-3 0  9994,2 52579  53.2186  26.6132 0001561  86.3391 273.7779 15.08841858 81894,6917.875,95.437,540.82,538.66,0.0
52579.0,STARLINK-3893,PAYLOAD,2023-11-02 21:55:33,15.0883834,0.0001533,53.2179,24.8293,83.2861,276.8305,7.0755e-05,8.38e-06,0.0,0 STARLINK-3893,1 52579U 22051AV  23306.91358167  .00000838  00000-0  70755-4 0  9999,2 52579  53.2179  24.8293 0001533  83.2861 276.8305 15.08838340 81881,6917.885,95.438,540.811,538.69,0.0
52579.0,STARLINK-3893,PAYLOAD,2023-11-03 12:14:01,15.08858069,0.0001574,53.2175,22.155,82.85,277.2671,0.00054919,8.467e-05,0.0,0 STARLINK-3893,1 52579U 22051AV  23307.50973570  .00008467  00000-0  54919-3 0  9995,2 52579  53.2175  22.1550 0001574  82.8500 277.2671 15.08858069 81975,6917.825,95.436,540.779,538.601,0.0
52579.0,STARLINK-3893,PAYLOAD,2023-11-04 10:29:25,15.08848164,0.0001453,53.2173,17.9917,91.6401,268.4758,0.00027259,4.054e-05,0.0,0 STARLINK-3893,1 52579U 22051AV  23308.43709846  .00004054  00000-0  27259-3 0  9996,2 52579  53.2173  17.9917 0001453  91.6401 268.4758 15.08848164 82183,6917.855,95.437,540.726,538.715,0.0
52579.0,STARLINK-3893,PAYLOAD,2023-11-04 12:04:48,15.08847313,0.0001405,53.2174,17.6944,87.1033,273.012,0.00034112,5.146e-05,0.0,0 STARLINK-3893,1 52579U 22051AV  23308.50333843  .00005146  00000-0  34112-3 0  9993,2 52579  53.2174  17.6944 0001405  87.1033 273.0120 15.08847313 82123,6917.858,95.437,540.695,538.751,0.0
52579.0,STARLINK-3893,PAYLOAD,2023-11-04 21:37:07,15.08851033,0.0001369,53.2173,15.9104,84.1835,275.9313,0.00039373,5.986e-05,0.0,0 STARLINK-3893,1 52579U 22051AV  23308.90077746  .00005986  00000-0  39373-3 0  9990,2 52579  53.2173  15.9104 0001369  84.1835 275.9313 15.08851033 82182,6917.847,95.437,540.659,538.765,0.0
52579.0,STARLINK-3893,PAYLOAD,2023-11-05 11:55:35,15.08854051,0.0001676,53.2181,13.2334,80.2345,279.8837,0.00041542,6.332e-05,0.0,0 STARLINK-3893,1 52579U 22051AV  23309.49693564  .00006332  00000-0  41542-3 0  9994,2 52579  53.2181  13.2334 0001676  80.2345 279.8837 15.08854051 82346,6917.837,95.437,540.862,538.543,0.0
52579.0,STARLINK-3893,PAYLOAD,2023-11-05 21:27:53,15.08854463,0.0001411,53.2171,11.4493,91.9429,268.1725,0.00067663,0.00010501,0.0,0 STARLINK-3893,1 52579U 22051AV  23309.89437409  .00010501  00000-0  67663-3 0  9997,2 52579  53.2171  11.4493 0001411  91.9429 268.1725 15.08854463 82333,6917.836,95.437,540.677,538.725,0.0
52579.0,STARLINK-3893,PAYLOAD,2023-11-06 10:10:58,15.08860537,0.0001242,53.2163,9.0714,94.5567,265.5567,0.00045504,6.965e-05,0.0,0 STARLINK-3893,1 52579U 22051AV  23310.42428721  .00006965  00000-0  45504-3 0  9994,2 52579  53.2163   9.0714 0001242  94.5567 265.5567 15.08860537 82487,6917.818,95.436,540.542,538.823,0.0
52579.0,STARLINK-3893,PAYLOAD,2023-11-06 21:18:42,15.08793632,0.0001862,53.2171,6.9895,79.2215,280.8986,-0.0010536,-0.00016996,0.0,0 STARLINK-3893,1 52579U 22051AV  23310.88799426 -.00016996  00000-0 -10536-2 0  9990,2 52579  53.2171   6.9895 0001862  79.2215 280.8986 15.08793632 82486,6918.022,95.44,541.175,538.599,0.0
52579.0,STARLINK-3893,PAYLOAD,2023-11-07 03:40:16,15.08796312,0.0002007,53.2175,5.7989,79.9149,280.2069,-0.00065538,-0.00010691,0.0,0 STARLINK-3893,1 52579U 22051AV  23311.15296427 -.00010691  00000-0 -65538-3 0  9993,2 52579  53.2175   5.7989 0002007  79.9149 280.2069 15.08796312 82592,6918.014,95.44,541.267,538.49,0.0
52579.0,STARLINK-3893,PAYLOAD,2023-11-07 10:01:48,15.08828658,0.0001586,53.2181,4.6096,87.8224,272.295,0.00065978,0.00010225,0.0,0 STARLINK-3893,1 52579U 22051AV  23311.41791993  .00010225  00000-0  65978-3 0  9999,2 52579  53.2181   4.6096 0001586  87.8224 272.2950 15.08828658 82633,6917.915,95.438,540.877,538.683,0.0
52579.0,STARLINK-3893,PAYLOAD,2023-11-07 21:09:30,15.08830676,0.0001497,53.2178,2.5283,90.6955,269.4209,0.00091655,0.00014325,0.0,0 STARLINK-3893,1 52579U 22051AV  23311.88160797  .00014325  00000-0  91655-3 0  9998,2 52579  53.2178   2.5283 0001497  90.6955 269.4209 15.08830676 82704,6917.909,95.438,540.809,538.738,0.0
52579.0,STARLINK-3893,PAYLOAD,2023-11-08 09:52:35,15.08849023,0.0001535,53.218,0.1489,93.3079,266.8089,0.0013153,0.00020712,0.0,0 STARLINK-3893,1 52579U 22051AV  23312.41152648  .00020712  00000-0  13153-2 0  9997,2 52579  53.2180   0.1489 0001535  93.3079 266.8089 15.08849023 82713,6917.853,95.437,540.78,538.656,0.0
52579.0,STARLINK-3893,PAYLOAD,2023-11-09 03:21:49,15.08861411,0.0001453,53.2182,356.8786,108.5621,251.5529,0.00036386,5.511e-05,0.0,0 STARLINK-3893,1 52579U 22051AV  23313.14015409  .00005511  00000-0  36386-3 0  9995,2 52579  53.2182 356.8786 0001453 108.5621 251.5529 15.08861411 82891,6917.815,95.436,540.685,538.675,0.0
52579.0,STARLINK-3893,PAYLOAD,2023-11-09 08:07:58,15.08862549,0.0001502,53.2178,355.9888,110.7733,249.342,0.00046509,7.126e-05,0.0,0 STARLINK-3893,1 52579U 22051AV  23313.33887218  .00007126  00000-0  46509-3 0  9993,2 52579  53.2178 355.9888 0001502 110.7733 249.3420 15.08862549 82857,6917.811,95.436,540.716,538.637,0.0
52579.0,STARLINK-3893,PAYLOAD,2023-11-10 09:34:08,15.08849486,0.0001511,53.2187,351.2327,98.7256,261.3907,-1.8567e-05,-5.84e-06,0.0,0 STARLINK-3893,1 52579U 22051AV  23314.39871343 -.00000584  00000-0 -18567-4 0  9999,2 52579  53.2187 351.2327 0001511  98.7256 261.3907 15.08849486 83084,6917.851,95.437,540.762,538.671,0.0
52579.0,STARLINK-3893,PAYLOAD,2023-11-10 19:06:27,15.08846882,0.000135,53.2177,349.4464,91.2125,268.9021,-0.00010163,-1.905e-05,0.0,0 STARLINK-3893,1 52579U 22051AV  23314.79615393 -.00001905  00000-0 -10163-3 0  9995,2 52579  53.2177 349.4464 0001350  91.2125 268.9021 15.08846882 83074,6917.859,95.437,540.658,538.79,0.0
52579.0,STARLINK-3893,PAYLOAD,2023-11-11 01:28:00,15.08841181,0.000135,53.2173,348.2558,85.805,274.3096,-3.6608e-05,-8.71e-06,0.0,0 STARLINK-3893,1 52579U 22051AV  23315.06111534 -.00000871  00000-0 -36608-4 0  9998,2 52579  53.2173 348.2558 0001350  85.8050 274.3096 15.08841181 83189,6917.877,95.437,540.676,538.808,0.0
52579.0,STARLINK-3893,PAYLOAD,2023-11-11 07:49:32,15.08842692,0.0001349,53.2175,347.0663,87.0897,273.025,-1.9349e-05,-5.96e-06,0.0,0 STARLINK-3893,1 52579U 22051AV  23315.32607372 -.00000596  00000-0 -19349-4 0  9994,2 52579  53.2175 347.0663 0001349  87.0897 273.0250 15.08842692 83159,6917.872,95.437,540.67,538.804,0.0
52579.0,STARLINK-3893,PAYLOAD,2023-11-12 09:15:43,15.08837001,0.0001385,53.2175,342.3079,83.0297,277.0853,3.4468e-05,2.61e-06,0.0,0 STARLINK-3893,1 52579U 22051AV  23316.38591623  .00000261  00000-0  34468-4 0  9998,2 52579  53.2175 342.3079 0001385  83.0297 277.0853 15.08837001 83384,6917.89,95.438,540.713,538.796,0.0
52579.0,STARLINK-3893,PAYLOAD,2023-11-13 10:41:52,15.08852831,0.0001608,53.2184,337.5494,80.6346,279.4827,0.00015921,2.248e-05,0.0,0 STARLINK-3893,1 52579U 22051AV  23317.44574319  .00002248  00000-0  15921-3 0  9998,2 52579  53.2184 337.5494 0001608  80.6346 279.4827 15.08852831 83540,6917.841,95.437,540.819,538.594,0.0
52579.0,STARLINK-3893,PAYLOAD,2023-11-13 18:38:48,15.08843038,0.0001495,53.2186,336.0616,100.3024,259.8137,9.7956e-05,1.271e-05,0.0,0 STARLINK-3893,1 52579U 22051AV  23317.77694923  .00001271  00000-0  97956-4 0  9992,2 52579  53.2186 336.0616 0001495 100.3024 259.8137 15.08843038 83599,6917.871,95.437,540.77,538.702,0.0
52579.0,STARLINK-3893,PAYLOAD,2023-11-14 08:57:16,15.08840824,0.0001483,53.217,333.3868,85.6291,274.4871,8.7141e-05,1.099e-05,0.0,0 STARLINK-3893,1 52579U 22051AV  23318.37311227  .00001099  00000-0  87141-4 0  9995,2 52579  53.2170 333.3868 0001483  85.6291 274.4871 15.08840824 83610,6917.878,95.438,540.769,538.717,0.0
52579.0,STARLINK-3893,PAYLOAD,2023-11-14 18:29:36,15.08836903,0.0001399,53.217,331.6017,88.9114,271.2038,9.0697e-06,-1.44e-06,0.0,0 STARLINK-3893,1 52579U 22051AV  23318.77055647 -.00000144  00000-0  90697-5 0  9992,2 52579  53.2170 331.6017 0001399  88.9114 271.2038 15.08836903 83740,6917.89,95.438,540.723,538.787,0.0
52579.0,STARLINK-3893,PAYLOAD,2023-11-15 07:12:41,15.0884313,0.0001572,53.2181,329.2216,93.9951,266.1221,-6.0119e-05,-1.245e-05,0.0,0 STARLINK-3893,1 52579U 22051AV  23319.30047497 -.00001245  00000-0 -60119-4 0  9995,2 52579  53.2181 329.2216 0001572  93.9951 266.1221 15.08843130 83752,6917.871,95.437,540.823,538.648,0.0
52579.0,STARLINK-3893,PAYLOAD,2023-11-15 18:20:22,15.08844214,0.0001569,53.218,327.1409,92.3899,267.7273,-4.5329e-05,-1.009e-05,0.0,0 STARLINK-3893,1 52579U 22051AV  23319.76415332 -.00001009  00000-0 -45329-4 0  9996,2 52579  53.2180 327.1409 0001569  92.3899 267.7273 15.08844214 83828,6917.868,95.437,540.818,538.647,0.0
52579.0,STARLINK-3893,PAYLOAD,2023-11-16 10:14:14,15.0884193,0.000179,53.2178,324.1665,106.6351,253.4838,7.1512e-05,8.5e-06,0.0,0 STARLINK-3893,1 52579U 22051AV  23320.42655291  .00000850  00000-0  71512-4 0  9995,2 52579  53.2178 324.1665 0001790 106.6351 253.4838 15.08841930 83926,6917.874,95.437,540.978,538.501,0.0
52579.0,STARLINK-3893,PAYLOAD,2023-11-17 00:32:42,15.08835452,0.000169,53.2174,321.4899,96.2094,263.9091,7.9366e-05,9.75e-06,0.0,0 STARLINK-3893,1 52579U 22051AV  23321.02271827  .00000975  00000-0  79366-4 0  9994,2 52579  53.2174 321.4899 0001690  96.2094 263.9091 15.08835452 84085,6917.894,95.438,540.928,538.59,0.0
